IRIDIUM 116             
1 43072U 17083C   25282.11809167  .00000284  00000+0  94427-4 0  9990
2 43072  86.3933  66.9452 0001898  85.9508 274.1905 14.34218185408189
IRIDIUM 130             
1 43073U 17083D   25282.15614400  .00000080  00000+0  21433-4 0  9990
2 43073  86.3948  67.1810 0002066  81.2185 278.9244 14.34218471408136
IRIDIUM 151             
1 43074U 17083E   25282.13077331  .00000409  00000+0  13895-3 0  9992
2 43074  86.3935  66.9922 0001873  86.9094 273.2316 14.34217741408159
IRIDIUM 134             
1 43075U 17083F   25282.16883329  .00000149  00000+0  46253-4 0  9994
2 43075  86.3937  66.9809 0002142  83.7153 276.4286 14.34217594408121
IRIDIUM 137             
1 43076U 17083G   25281.90244279  .00000204  00000+0  65906-4 0  9999
2 43076  86.3938  67.1801 0001493  87.8574 272.2792 14.34217842408153
IRIDIUM 141             
1 43077U 17083H   25281.47748810 -.00000174  00000+0 -69044-4 0  9997
2 43077  86.3931  67.2031 0002013  95.5656 264.5770 14.34216493408093
IRIDIUM 153             
1 43078U 17083J   25282.05758646  .00000288  00000+0  95666-4 0  9994
2 43078  86.3998  35.4339 0002477  98.9958 261.1518 14.34219143409281
IRIDIUM 131             
1 43079U 17083K   25281.81364632  .00000162  00000+0  50802-4 0  9990
2 43079  86.3940  67.2314 0002015  94.9230 265.2196 14.34217012408078
